{"id":"199","name":"Mercury ","centerId":"10","centerName":"Sun ","epoch":"2000-Jan-01 12:00:00.0000","physicalData":{"id":"199","name":"Mercury ","table":{"meanRadius":2440000,"mass":3.302e+23,"siderealRotationRate":0.00000124001,"gravParameter":22031868.55,"obliquity":2.11}},"elementTable":{"eccentricity":0.2056302933705567,"periapsis":46001209592.307884,"inclination":7.005014303275355,"longitudeOfAscendingNode":48.33053855197922,"argumentOfPeriapsis":29.12428165737838,"timeOfPeriapsis":2451502.287121773,"meanMotion":0.00004736511751745466,"meanAnomaly":174.7958829169579,"trueAnomaly":176.4950862746721,"semiMajorAxis":57909068294.527084,"apoapsis":69816926996.74629,"siderealOrbitPeriod":7600530.070833991},"vectorTable":{"position":[-19461726355.85372,-66913275263.524,-3679854343.7495418],"velocity":[36994.99185727919,-11164.4159256185,-4307.62811865822],"range":69783139276.14233,"rangeRate":614.9432715812321}}
